     3.00           N                   E                   RINEX VERSION / TYPE
BRD_USR             ESA                 20190107 071909  UTCPGM / RUN BY / DATE
 GAL   5.1250E+01  3.1250E-02 -4.3335E-03  0.0000E+00       IONOSPHERIC CORR
GAUT  0.0000000000E+00 0.000000000E+00  86400 2035 GSTB   0 TIME SYSTEM CORR
GPGA -2.1245796233E-09 4.440892099E-15  86400 2035 GSTB   0 TIME SYSTEM CORR
                                                            END OF HEADER
E14 2019 01 07 05 20 00 6.463583209552E-03-5.627498467220E-12 0.000000000000E+00
     4.800000000000E+01 2.060937500000E+02 3.976594212539E-09 1.697894133112E+00
     5.187466740608E-06 1.663691559806E-01-8.944422006607E-06 5.289408809662E+03
     1.056000000000E+05 1.993030309677E-06-1.461976125334E+00-1.750886440277E-06
     8.825530985190E-01 4.748125000000E+02 1.454011668691E+00-6.401338069996E-09
    -1.871506527187E-10 2.580000000000E+02 2.035000000000E+03 0.000000000000E+00
     3.120000000000E+00 5.600000000000E+01 3.329478204250E-08 0.000000000000E+00
     1.063000000000E+05 0.000000000000E+00 0.000000000000E+00 0.000000000000E+00
E18 2019 01 07 05 20 00 5.624948069453E-03-2.843592028512E-11 0.000000000000E+00
     4.800000000000E+01 5.406250000000E+00 2.193305645698E-09-1.473888572164E+00
     2.432614564896E-06 1.664211949101E-01-9.741634130478E-07 5.289358484268E+03
     1.056000000000E+05 6.880611181259E-06-1.444778149632E+00 2.691522240639E-06
     8.817761632080E-01 3.473437500000E+02 1.438496238959E+00-2.351169364213E-09
    -4.075169747177E-10 2.580000000000E+02 2.035000000000E+03 0.000000000000E+00
     3.120000000000E+00 5.600000000000E+01 1.420266926289E-08 0.000000000000E+00
     1.063000000000E+05 0.000000000000E+00 0.000000000000E+00 0.000000000000E+00
E19 2019 01 07 05 20 00-9.317416697741E-06 2.842170943040E-13 0.000000000000E+00
     4.800000000000E+01 3.175000000000E+01 3.425142670940E-09-2.526382200359E+00
     1.426786184311E-06 1.377102453262E-04 6.368383765221E-06 5.440610553741E+03
     1.056000000000E+05 1.676380634308E-08 1.240702288870E+00-3.539025783539E-08
     9.580093963196E-01 2.017500000000E+02 2.311130374005E+00-5.594875906182E-09
     5.189501877869E-10 2.580000000000E+02 2.035000000000E+03 0.000000000000E+00
     3.120000000000E+00 0.000000000000E+00-8.614733815193E-09 0.000000000000E+00
     1.063000000000E+05 0.000000000000E+00 0.000000000000E+00 0.000000000000E+00
E24 2019 01 07 05 20 00 6.298879801761E-03-1.963940121641E-11 0.000000000000E+00
     4.800000000000E+01 1.090000000000E+02 2.244379201688E-09 1.873807488129E+00
     5.207955837250E-06 4.608033923432E-04 1.137703657150E-05 5.440629716873E+03
     1.056000000000E+05 0.000000000000E+00-2.943316516924E+00-1.676380634308E-08
     9.879035669718E-01 1.091562500000E+02 4.501220629450E-01-5.039852787241E-09
    -1.571494030463E-10 2.580000000000E+02 2.035000000000E+03 0.000000000000E+00
     3.120000000000E+00 0.000000000000E+00 4.284083843231E-08 0.000000000000E+00
     1.063000000000E+05 0.000000000000E+00 0.000000000000E+00 0.000000000000E+00
E27 2019 01 07 05 20 00 5.547565524466E-04-7.716494110355E-12 0.000000000000E+00
     4.800000000000E+01 1.273437500000E+02 2.346883471402E-09 1.257825478737E-01
     5.945563316345E-06 2.082054270431E-04 1.289881765842E-05 5.440632032394E+03
     1.056000000000E+05-1.117587089539E-08-2.949376346392E+00 2.980232238770E-08
     9.898726137448E-01 7.228125000000E+01-9.210111813668E-01-5.077354349332E-09
    -2.496532562031E-10 2.580000000000E+02 2.035000000000E+03 0.000000000000E+00
     3.120000000000E+00 0.000000000000E+00-2.793967723846E-09 0.000000000000E+00
     1.063000000000E+05 0.000000000000E+00 0.000000000000E+00 0.000000000000E+00
E33 2019 01 07 05 20 00 8.478748495691E-04 7.105427357601E-14 0.000000000000E+00
     4.800000000000E+01-1.349375000000E+02 3.043698210819E-09-2.976883978321E+00
    -6.221234798431E-06 3.587745595723E-04 2.235174179077E-07 5.440596593857E+03
     1.056000000000E+05 3.911554813385E-08-8.665292374609E-01 3.166496753693E-08
     9.851759781568E-01 3.475312500000E+02-1.501987849126E+00-5.776312035153E-09
    -2.535819912792E-10 2.580000000000E+02 2.035000000000E+03 0.000000000000E+00
     3.120000000000E+00 5.600000000000E+01-8.149072527885E-09 0.000000000000E+00
     1.063000000000E+05 0.000000000000E+00 0.000000000000E+00 0.000000000000E+00
E02 2019 01 07 05 20 00 4.229537444189E-05 1.534772309242E-12 0.000000000000E+00
     4.800000000000E+01 1.356250000000E+02 2.326525480553E-09 1.029558653936E+00
     6.202608346939E-06 2.681789919734E-04 1.200661063194E-05 5.440628526688E+03
     1.056000000000E+05 2.235174179077E-08-2.946818614069E+00-3.166496753693E-08
     9.903444223803E-01 9.831250000000E+01-2.734132008716E-01-5.033066790291E-09
    -2.175090601254E-10 2.580000000000E+02 2.035000000000E+03 0.000000000000E+00
     3.120000000000E+00 0.000000000000E+00-5.820766091347E-09 0.000000000000E+00
     1.067000000000E+05 0.000000000000E+00 0.000000000000E+00 0.000000000000E+00
E02 2019 01 07 05 20 00 4.229450132698E-05 1.520561454527E-12 0.000000000000E+00
     4.800000000000E+01 1.356250000000E+02 2.326525480553E-09 1.029558653936E+00
     6.202608346939E-06 2.681789919734E-04 1.200661063194E-05 5.440628526688E+03
     1.056000000000E+05 2.235174179077E-08-2.946818614069E+00-3.166496753693E-08
     9.903444223803E-01 9.831250000000E+01-2.734132008716E-01-5.033066790291E-09
    -2.175090601254E-10 5.210000000000E+02 2.035000000000E+03 0.000000000000E+00
     3.120000000000E+00 0.000000000000E+00-5.820766091347E-09-7.217749953270E-09
     1.067050000000E+05 0.000000000000E+00 0.000000000000E+00 0.000000000000E+00
E36 2019 01 07 05 20 00 7.625852013007E-04-4.433786671143E-12 0.000000000000E+00
     4.800000000000E+01-1.481875000000E+02 2.992981812563E-09 1.079767051329E+00
    -6.893649697304E-06 3.266204148531E-04 1.402571797371E-06 5.440598361969E+03
     1.056000000000E+05-5.774199962616E-08-8.665034842510E-01-2.421438694000E-08
     9.851843884728E-01 3.225937500000E+02-1.629915958005E+00-5.737381842126E-09
    -2.964409193827E-10 5.210000000000E+02 2.035000000000E+03 0.000000000000E+00
     3.120000000000E+00 4.550000000000E+02 1.164153218269E-09 1.396983861923E-09
     1.067950000000E+05 0.000000000000E+00 0.000000000000E+00 0.000000000000E+00
E36 2019 01 07 05 20 00 7.625845028087E-04-4.433786671143E-12 0.000000000000E+00
     4.800000000000E+01-1.481875000000E+02 2.992981812563E-09 1.079767051329E+00
    -6.893649697304E-06 3.266204148531E-04 1.402571797371E-06 5.440598361969E+03
     1.056000000000E+05-5.774199962616E-08-8.665034842510E-01-2.421438694000E-08
     9.851843884728E-01 3.225937500000E+02-1.629915958005E+00-5.737381842126E-09
    -2.964409193827E-10 2.580000000000E+02 2.035000000000E+03 0.000000000000E+00
     3.120000000000E+00 5.600000000000E+01 1.164153218269E-09 0.000000000000E+00
     1.068000000000E+05 0.000000000000E+00 0.000000000000E+00 0.000000000000E+00
E03 2019 01 07 05 30 00-1.193959033117E-04-4.305888978706E-12 0.000000000000E+00
     4.900000000000E+01 3.340625000000E+01 3.607293115380E-09 2.291103171792E+00
     1.503154635429E-06 2.712642308325E-04 6.150454282761E-06 5.440607015610E+03
     1.062000000000E+05 2.793967723846E-08 1.243981236880E+00 3.911554813385E-08
     9.522372014159E-01 2.055000000000E+02 6.298940779824E-01-5.708452065656E-09
     4.950206195958E-10 5.210000000000E+02 2.035000000000E+03 0.000000000000E+00
     3.120000000000E+00 0.000000000000E+00-1.862645149231E-09-2.095475792885E-09
     1.068850000000E+05 0.000000000000E+00 0.000000000000E+00 0.000000000000E+00
E05 2019 01 07 05 30 00 1.293367822655E-04-6.536993168993E-12 0.000000000000E+00
     4.900000000000E+01 3.921875000000E+01 3.560505452201E-09 2.139810043403E+00
     1.857057213783E-06 1.420506741852E-04 5.995854735374E-06 5.440606945038E+03
     1.062000000000E+05 1.117587089539E-08 1.243964065148E+00 6.705522537231E-08
     9.522507275565E-01 2.088750000000E+02 1.568660962328E+00-5.690594178946E-09
     5.289506043444E-10 5.210000000000E+02 2.035000000000E+03 0.000000000000E+00
     3.120000000000E+00 0.000000000000E+00-1.396983861923E-09-1.629814505577E-09
     1.068850000000E+05 0.000000000000E+00 0.000000000000E+00 0.000000000000E+00
E08 2019 01 07 05 30 00 6.428317225073E-03-7.460698725481E-12 0.000000000000E+00
     4.900000000000E+01 2.868750000000E+01 3.427285617346E-09 1.653425826885E+00
     1.279637217522E-06 2.238540910184E-04 6.578862667084E-06 5.440606468201E+03
     1.062000000000E+05 7.078051567078E-08 1.235346156646E+00-2.421438694000E-08
     9.582250362961E-01 2.011562500000E+02 4.837904934845E-01-5.557374344091E-09
     4.778770483544E-10 5.210000000000E+02 2.035000000000E+03 0.000000000000E+00
     3.120000000000E+00 0.000000000000E+00-8.381903171539E-09-9.778887033463E-09
     1.068850000000E+05 0.000000000000E+00 0.000000000000E+00 0.000000000000E+00
E09 2019 01 07 05 30 00 6.565659190528E-03-1.136868377216E-11 0.000000000000E+00
     4.900000000000E+01 4.031250000000E+01 3.396212894471E-09-1.908388365544E+00
     1.935288310051E-06 2.457388909534E-04 6.359070539474E-06 5.440608551025E+03
     1.062000000000E+05-6.146728992462E-08 1.235342413039E+00 3.725290298462E-09
     9.582548842137E-01 2.044062500000E+02 1.173590597216E-01-5.596304537118E-09
     4.946634618616E-10 5.210000000000E+02 2.035000000000E+03 0.000000000000E+00
     3.120000000000E+00 0.000000000000E+00-3.259629011154E-09-3.958120942116E-09
     1.068850000000E+05 0.000000000000E+00 0.000000000000E+00 0.000000000000E+00
